OBJECT_NAME,OBJECT_ID,EPOCH,MEAN_MOTION,ECCENTRICITY,INCLINATION,RA_OF_ASC_NODE,ARG_OF_PERICENTER,MEAN_ANOMALY,EPHEMERIS_TYPE,CLASSIFICATION_TYPE,NORAD_CAT_ID,ELEMENT_SET_NO,REV_AT_EPOCH,BSTAR,MEAN_MOTION_DOT,MEAN_MOTION_DDOT
SAUDISAT 5A,2018-102A,2026-06-07T20:46:30.247104,15.27952962,.0010322,97.3069,220.6266,158.2688,201.8991,0,U,43831,999,41425,.23947E-3,.6468E-4,0
SAUDISAT 5B,2018-102C,2026-06-07T21:15:54.999936,15.28215005,.001094,97.3177,223.6996,160.9746,199.1905,0,U,43833,999,41437,.22172E-3,.6032E-4,0
GAOFEN-10R,2019-066A,2026-06-07T20:13:54.401664,14.83041417,.0006014,98.0498,112.3545,153.6864,206.4655,0,U,44622,999,36099,.18422E-3,.1444E-4,0
CARTOSAT-3,2019-081A,2026-06-07T20:53:30.902784,15.19212602,.0012228,97.4304,220.8872,179.2524,180.8731,0,U,44804,999,36205,.10184E-3,.2079E-4,0
GAOFEN-12 01,2019-082A,2026-06-07T19:41:01.042944,14.80451296,.0002479,97.8101,165.4469,81.5025,278.6468,0,U,44819,999,35270,.70661E-4,.49E-5,0
CSG-1,2019-092A,2026-06-07T19:15:27.222624,14.82157623,.0001456,97.8888,342.5410,90.6067,269.5313,0,U,44873,999,35008,.76188E-4,.554E-5,0
NEMO-HD,2020-061F,2026-06-07T20:45:39.175200,15.44407110,.0002624,97.1921,220.9133,90.7534,269.4015,0,U,46277,999,32054,.25596E-3,.11746E-3,0
SENTINEL-6A,2020-086A,2026-06-07T09:41:51.444960,12.80929754,.0007955,66.0384,155.3720,270.3124,89.6980,0,U,46984,999,25907,.11773E-3,-.34E-6,0
CAS500-1,2021-022A,2026-06-07T20:20:35.053152,15.20228372,.0004208,97.3907,54.2894,339.4154,20.6911,0,U,47932,999,28934,.36529E-3,.7856E-4,0
GAOFEN-12 02,2021-026A,2026-06-07T21:32:50.264736,14.80289425,.0003327,97.9920,157.1166,263.1627,96.9206,0,U,48079,999,28038,.68458E-4,.469E-5,0
PLEIADES NEO 3,2021-034A,2026-06-07T20:47:13.969824,14.81666962,.0001443,97.8927,233.7671,83.2701,276.8676,0,U,48268,999,27627,.12955E-3,.967E-5,0
PLEIADES NEO 4,2021-073E,2026-06-07T19:58:37.189632,14.81663449,.0001377,97.8927,233.7291,83.5709,276.5660,0,U,49070,999,25998,.20038E-3,.1525E-4,0
LANDSAT 9,2021-088A,2026-06-07T17:16:52.523040,14.57104730,.0001459,98.2279,229.0117,88.5261,271.6105,0,U,49260,999,24962,.10439E-3,.425E-5,0
CSG-2,2022-008A,2026-06-06T08:25:17.239872,14.82168009,.00015003,97.8885,341.1056,82.8328,277.3056,0,U,51444,999,23498,.11521837E-3,.865E-5,0
GAOFEN-12 03,2022-069A,2026-06-07T20:36:07.875936,14.80021489,.0001666,97.8286,46.9633,111.4002,248.7388,0,U,52912,999,21323,.17817E-3,.1298E-4,0
SWOT,2022-173A,2026-06-07T20:12:37.478880,14.00168460,.0000194,77.6112,47.9257,97.7406,262.3768,0,U,54754,999,17784,.9828E-5,.12E-6,0
GAOFEN-12 04,2023-123A,2026-06-07T21:01:54.955200,14.80212047,.0001784,97.9129,77.0278,87.2506,272.8910,0,U,57654,999,15125,.17173E-3,.1254E-4,0
PARS 1,2024-039Q,2026-06-07T20:41:48.992640,15.45533562,.0010875,97.4821,139.4902,139.5210,220.6849,0,U,59065,999,12720,.24551E-3,.11722E-3,0
RESURS-P 4,2024-061A,2026-06-07T20:35:51.802944,15.32079417,.0001442,97.2746,106.9200,131.6181,228.5185,0,U,59371,999,12233,.12219E-3,.3708E-4,0
LEGION 1,2024-081A,2026-06-07T19:00:50.716224,15.16602646,.0010368,97.5013,236.7500,48.2314,311.9804,0,U,59625,999,11611,.20301E-3,.3903E-4,0
LEGION 2,2024-081B,2026-06-07T19:43:50.272896,15.16583063,.0011689,97.5014,236.8774,16.8879,343.2741,0,U,59626,999,11612,.23184E-3,.4467E-4,0
ALOS-4 (DAICHI-4),2024-123A,2026-06-06T19:27:22.620672,14.79475508,.00016816,97.9239,255.1300,98.6257,261.5145,0,U,60182,999,10434,.23293895E-3,.1689E-4,0
LEGION 3,2024-146A,2026-06-07T20:09:23.854752,15.15967339,.000686,45.0008,80.6833,110.8959,249.2655,0,U,60452,999,10060,.26029E-3,.4821E-4,0
LEGION 4,2024-146B,2026-06-07T12:19:19.183008,15.15965353,.0014034,45.0000,174.3451,258.1611,101.7694,0,U,60453,999,9940,.22247E-3,.4087E-4,0
SENTINEL-2C,2024-157A,2026-06-07T17:34:02.959680,14.30815459,.0001184,98.5692,233.6475,79.1541,280.9775,0,U,60989,999,9163,.68257E-4,.135E-5,0
IONOSFERA-M 1,2024-199A,2026-06-07T18:28:57.631872,14.22752688,.000167,98.7185,32.0412,123.1420,236.9918,0,U,61735,999,12636,.49722E-4,.67E-6,0
IONOSFERA-M 2,2024-199B,2026-06-07T20:59:38.887296,14.22755871,.0001408,98.7184,32.0555,47.2290,312.9007,0,U,61736,999,12950,.50198E-4,.68E-6,0
PRSC-EO1,2025-012A,2026-06-07T19:54:13.707648,15.17651633,.0004261,97.4222,231.4719,295.3598,64.7194,0,U,62725,999,7677,.39033E-3,.7795E-4,0
BIOMASS,2025-090A,2026-06-07T18:15:24.590592,14.67534958,.0001352,98.0743,346.2144,89.0039,271.1320,0,U,63772,999,5930,.17097E-3,.921E-5,0
GOSAT-GW (IBUKI GW),2025-141A,2026-06-07T20:22:58.207584,14.67554994,.0001449,98.0572,96.3182,84.7306,275.4064,0,U,64694,999,5047,.15355E-3,.823E-5,0
IONOSFERA-M 3,2025-155A,2026-06-07T19:31:45.782976,14.21484972,.0000457,98.6026,120.9550,177.0379,183.0802,0,U,64876,999,4507,.53951E-4,.75E-6,0
