SAUDISAT 5A             
1 43831U 18102A   26158.86562786  .00006468  00000+0  23947-3 0  9992
2 43831  97.3069 220.6266 0010322 158.2688 201.8991 15.27952962414259
SAUDISAT 5B             
1 43833U 18102C   26158.88605324  .00006032  00000+0  22172-3 0  9998
2 43833  97.3177 223.6996 0010940 160.9746 199.1905 15.28215005414373
GAOFEN-10R              
1 44622U 19066A   26158.84299076  .00001444  00000+0  18422-3 0  9999
2 44622  98.0498 112.3545 0006014 153.6864 206.4655 14.83041417360991
CARTOSAT-3              
1 44804U 19081A   26158.87049656  .00002079  00000+0  10184-3 0  9990
2 44804  97.4304 220.8872 0012228 179.2524 180.8731 15.19212602362056
GAOFEN-12 01            
1 44819U 19082A   26158.82015096  .00000490  00000+0  70661-4 0  9995
2 44819  97.8101 165.4469 0002479  81.5025 278.6468 14.80451296352700
CSG-1                   
1 44873U 19092A   26158.80239841  .00000554  00000+0  76188-4 0  9991
2 44873  97.8888 342.5410 0001456  90.6067 269.5313 14.82157623350083
NEMO-HD                 
1 46277U 20061F   26158.86503675  .00011746  00000+0  25596-3 0  9995
2 46277  97.1921 220.9133 0002624  90.7534 269.4015 15.44407110320547
SENTINEL-6A             
1 46984U 20086A   26158.40406765 -.00000034  00000+0  11773-3 0  9990
2 46984  66.0384 155.3720 0007955 270.3124  89.6980 12.80929754259078
CAS500-1                
1 47932U 21022A   26158.84762793  .00007856  00000+0  36529-3 0  9993
2 47932  97.3907  54.2894 0004208 339.4154  20.6911 15.20228372289344
GAOFEN-12 02            
1 48079U 21026A   26158.89780399  .00000469  00000+0  68458-4 0  9997
2 48079  97.9920 157.1166 0003327 263.1627  96.9206 14.80289425280381
PLEIADES NEO 3          
1 48268U 21034A   26158.86613391  .00000967  00000+0  12955-3 0  9993
2 48268  97.8927 233.7671 0001443  83.2701 276.8676 14.81666962276279
PLEIADES NEO 4          
1 49070U 21073E   26158.83237488  .00001525  00000+0  20038-3 0  9996
2 49070  97.8927 233.7291 0001377  83.5709 276.5660 14.81663449259982
LANDSAT 9               
1 49260U 21088A   26158.72005235  .00000425  00000+0  10439-3 0  9996
2 49260  98.2279 229.0117 0001459  88.5261 271.6105 14.57104730249628
CSG-2                   
1 51444U 22008A   26157.35089398  .00000865  00000+0  11522-3 0  9998
2 51444  97.8885 341.1056 0001500  82.8328 277.3056 14.82168009234987
GAOFEN-12 03            
1 52912U 22069A   26158.85842449  .00001298  00000+0  17817-3 0  9990
2 52912  97.8286  46.9633 0001666 111.4002 248.7388 14.80021489213238
SWOT                    
1 54754U 22173A   26158.84210045  .00000012  00000+0  98280-5 0  9990
2 54754  77.6112  47.9257 0000194  97.7406 262.3768 14.00168460177843
GAOFEN-12 04            
1 57654U 23123A   26158.87633050  .00001254  00000+0  17173-3 0  9995
2 57654  97.9129  77.0278 0001784  87.2506 272.8910 14.80212047151257
PARS 1                  
1 59065U 24039Q   26158.86237260  .00011722  00000+0  24551-3 0  9991
2 59065  97.4821 139.4902 0010875 139.5210 220.6849 15.45533562127200
RESURS-P 4              
1 59371U 24061A   26158.85823846  .00003708  00000+0  12219-3 0  9999
2 59371  97.2746 106.9200 0001442 131.6181 228.5185 15.32079417122333
LEGION 1                
1 59625U 24081A   26158.79225366  .00003903  00000+0  20301-3 0  9997
2 59625  97.5013 236.7500 0010368  48.2314 311.9804 15.16602646116110
LEGION 2                
1 59626U 24081B   26158.82210964  .00004467  00000+0  23184-3 0  9998
2 59626  97.5014 236.8774 0011689  16.8879 343.2741 15.16583063116120
ALOS-4 (DAICHI-4)       
1 60182U 24123A   26157.81067848  .00001689  00000+0  23294-3 0  9998
2 60182  97.9239 255.1300 0001681  98.6257 261.5145 14.79475508104343
LEGION 3                
1 60452U 24146A   26158.83985943  .00004821  00000+0  26029-3 0  9991
2 60452  45.0008  80.6833 0006860 110.8959 249.2655 15.15967339100606
LEGION 4                
1 60453U 24146B   26158.51341647  .00004087  00000+0  22247-3 0  9996
2 60453  45.0000 174.3451 0014034 258.1611 101.7694 15.15965353 99403
SENTINEL-2C             
1 60989U 24157A   26158.73197870  .00000135  00000+0  68257-4 0  9995
2 60989  98.5692 233.6475 0001184  79.1541 280.9775 14.30815459 91631
IONOSFERA-M 1           
1 61735U 24199A   26158.77011148  .00000067  00000+0  49722-4 0  9998
2 61735  98.7185  32.0412 0001670 123.1420 236.9918 14.22752688126362
IONOSFERA-M 2           
1 61736U 24199B   26158.87475564  .00000068  00000+0  50198-4 0  9996
2 61736  98.7184  32.0555 0001408  47.2290 312.9007 14.22755871129500
PRSC-EO1                
1 62725U 25012A   26158.82932532  .00007795  00000+0  39033-3 0  9996
2 62725  97.4222 231.4719 0004261 295.3598  64.7194 15.17651633 76777
BIOMASS                 
1 63772U 25090A   26158.76070128  .00000921  00000+0  17097-3 0  9992
2 63772  98.0743 346.2144 0001352  89.0039 271.1320 14.67534958 59307
GOSAT-GW (IBUKI GW)     
1 64694U 25141A   26158.84928481  .00000823  00000+0  15355-3 0  9992
2 64694  98.0572  96.3182 0001449  84.7306 275.4064 14.67554994 50475
IONOSFERA-M 3           
1 64876U 25155A   26158.81372434  .00000075  00000+0  53951-4 0  9991
2 64876  98.6026 120.9550 0000457 177.0379 183.0802 14.21484972 45076
